{
  "type": "FeatureCollection",
  "features": [
    {
      "type": "Feature",
      "properties": {
        "norad_id": 34121,
        "name": "COSMOS 2251 DEB",
        "group": "cosmos-2251-debris",
        "lat": 38.62362941214238,
        "lon": -117.92935622074275,
        "alt_km": 1048.7217164685726,
        "timestamp": "2025-12-25T11:37:44.833234+00:00",
        "meta_object_name": "COSMOS 2251 DEB",
        "meta_object_id": "1993-036KS",
        "meta_epoch": "2025-12-24T16:33:12.673728",
        "meta_mean_motion": 13.91973182,
        "meta_eccentricity": 0.0241022,
        "meta_inclination": 73.9923,
        "meta_ra_of_asc_node": 76.6915,
        "meta_arg_of_pericenter": 279.6475,
        "meta_mean_anomaly": 200.2437,
        "meta_ephemeris_type": 0,
        "meta_classification_type": "U",
        "meta_norad_cat_id": 34121,
        "meta_element_set_no": 999,
        "meta_rev_at_epoch": 85291,
        "meta_bstar": 0.0012623,
        "meta_mean_motion_dot": 2.017e-05,
        "meta_mean_motion_ddot": 0,
        "tle_line1": "1 34121U 93036KS  25358.68973002  .00002017  00000+0  12623-2 0  9995",
        "tle_line2": "2 34121  73.9923  76.6915 0241022 279.6475 200.2437 13.91973182852918"
      },
      "geometry": {
        "type": "Point",
        "coordinates": [
          -117.92935622074275,
          38.62362941214238
        ]
      }
    },
    {
      "type": "Feature",
      "properties": {
        "norad_id": 34122,
        "name": "COSMOS 2251 DEB",
        "group": "cosmos-2251-debris",
        "lat": 32.63613821426054,
        "lon": -96.44984730581376,
        "alt_km": 729.9132606909143,
        "timestamp": "2025-12-25T11:37:44.833244+00:00",
        "meta_object_name": "COSMOS 2251 DEB",
        "meta_object_id": "1993-036KT",
        "meta_epoch": "2025-12-24T17:29:51.170208",
        "meta_mean_motion": 14.6518112,
        "meta_eccentricity": 0.0085061,
        "meta_inclination": 74.0363,
        "meta_ra_of_asc_node": 95.5664,
        "meta_arg_of_pericenter": 348.9969,
        "meta_mean_anomaly": 133.1578,
        "meta_ephemeris_type": 0,
        "meta_classification_type": "U",
        "meta_norad_cat_id": 34122,
        "meta_element_set_no": 999,
        "meta_rev_at_epoch": 88860,
        "meta_bstar": 0.0010514303,
        "meta_mean_motion_dot": 5.939e-05,
        "meta_mean_motion_ddot": 0,
        "tle_line1": "1 34122U 93036KT  25358.72906447  .00005939  00000+0  10514-2 0  9993",
        "tle_line2": "2 34122  74.0363  95.5664 0085061 348.9969 133.1578 14.65181120888607"
      },
      "geometry": {
        "type": "Point",
        "coordinates": [
          -96.44984730581376,
          32.63613821426054
        ]
      }
    },
    {
      "type": "Feature",
      "properties": {
        "norad_id": 34127,
        "name": "COSMOS 2251 DEB",
        "group": "cosmos-2251-debris",
        "lat": -37.557925828819506,
        "lon": 8.236217079009936,
        "alt_km": 809.2333712311947,
        "timestamp": "2025-12-25T11:37:44.833255+00:00",
        "meta_object_name": "COSMOS 2251 DEB",
        "meta_object_id": "1993-036KY",
        "meta_epoch": "2025-12-25T01:53:55.961088",
        "meta_mean_motion": 14.3165102,
        "meta_eccentricity": 0.0114585,
        "meta_inclination": 74.1798,
        "meta_ra_of_asc_node": 21.5614,
        "meta_arg_of_pericenter": 219.0382,
        "meta_mean_anomaly": 171.7538,
        "meta_ephemeris_type": 0,
        "meta_classification_type": "U",
        "meta_norad_cat_id": 34127,
        "meta_element_set_no": 999,
        "meta_rev_at_epoch": 86948,
        "meta_bstar": 0.0015391,
        "meta_mean_motion_dot": 4.385e-05,
        "meta_mean_motion_ddot": 0,
        "tle_line1": "1 34127U 93036KY  25359.07911992  .00004385  00000+0  15391-2 0  9990",
        "tle_line2": "2 34127  74.1798  21.5614 0114585 219.0382 171.7538 14.31651020869483"
      },
      "geometry": {
        "type": "Point",
        "coordinates": [
          8.236217079009936,
          -37.557925828819506
        ]
      }
    },
    {
      "type": "Feature",
      "properties": {
        "norad_id": 34128,
        "name": "COSMOS 2251 DEB",
        "group": "cosmos-2251-debris",
        "lat": 51.34361629198514,
        "lon": 69.68277171528281,
        "alt_km": 561.6211764898289,
        "timestamp": "2025-12-25T11:37:44.833265+00:00",
        "meta_object_name": "COSMOS 2251 DEB",
        "meta_object_id": "1993-036KZ",
        "meta_epoch": "2025-12-24T20:58:40.497312",
        "meta_mean_motion": 15.01612252,
        "meta_eccentricity": 0.00259906,
        "meta_inclination": 73.999,
        "meta_ra_of_asc_node": 271.952,
        "meta_arg_of_pericenter": 21.2594,
        "meta_mean_anomaly": 45.372,
        "meta_ephemeris_type": 0,
        "meta_classification_type": "U",
        "meta_norad_cat_id": 34128,
        "meta_element_set_no": 999,
        "meta_rev_at_epoch": 89349,
        "meta_bstar": 0.0014650244,
        "meta_mean_motion_dot": 0.00019158,
        "meta_mean_motion_ddot": 0,
        "tle_line1": "1 34128U 93036KZ  25358.87407983  .00019158  00000+0  14650-2 0  9999",
        "tle_line2": "2 34128  73.9990 271.9520 0025990  21.2594  45.3720 15.01612252893490"
      },
      "geometry": {
        "type": "Point",
        "coordinates": [
          69.68277171528281,
          51.34361629198514
        ]
      }
    },
    {
      "type": "Feature",
      "properties": {
        "norad_id": 34129,
        "name": "COSMOS 2251 DEB",
        "group": "cosmos-2251-debris",
        "lat": -46.819826299174075,
        "lon": -63.17761087697049,
        "alt_km": 645.0026447109249,
        "timestamp": "2025-12-25T11:37:44.833275+00:00",
        "meta_object_name": "COSMOS 2251 DEB",
        "meta_object_id": "1993-036LA",
        "meta_epoch": "2025-12-24T22:50:15.152064",
        "meta_mean_motion": 14.75956411,
        "meta_eccentricity": 0.0033531,
        "meta_inclination": 74.0358,
        "meta_ra_of_asc_node": 315.6262,
        "meta_arg_of_pericenter": 33.5081,
        "meta_mean_anomaly": 326.8205,
        "meta_ephemeris_type": 0,
        "meta_classification_type": "U",
        "meta_norad_cat_id": 34129,
        "meta_element_set_no": 999,
        "meta_rev_at_epoch": 61478,
        "meta_bstar": 0.0016417,
        "meta_mean_motion_dot": 0.00011383,
        "meta_mean_motion_ddot": 0,
        "tle_line1": "1 34129U 93036LA  25358.95156426  .00011383  00000+0  16417-2 0  9997",
        "tle_line2": "2 34129  74.0358 315.6262 0033531  33.5081 326.8205 14.75956411614783"
      },
      "geometry": {
        "type": "Point",
        "coordinates": [
          -63.17761087697049,
          -46.819826299174075
        ]
      }
    },
    {
      "type": "Feature",
      "properties": {
        "norad_id": 34136,
        "name": "COSMOS 2251 DEB",
        "group": "cosmos-2251-debris",
        "lat": -54.871393850749094,
        "lon": -6.54024812332832,
        "alt_km": 692.9618659304779,
        "timestamp": "2025-12-25T11:37:44.833285+00:00",
        "meta_object_name": "COSMOS 2251 DEB",
        "meta_object_id": "1993-036LH",
        "meta_epoch": "2025-12-25T00:39:47.191392",
        "meta_mean_motion": 14.80154125,
        "meta_eccentricity": 0.0084999,
        "meta_inclination": 74.0199,
        "meta_ra_of_asc_node": 18.3962,
        "meta_arg_of_pericenter": 137.99,
        "meta_mean_anomaly": 249.8313,
        "meta_ephemeris_type": 0,
        "meta_classification_type": "U",
        "meta_norad_cat_id": 34136,
        "meta_element_set_no": 999,
        "meta_rev_at_epoch": 90192,
        "meta_bstar": 0.00039257,
        "meta_mean_motion_dot": 3.135e-05,
        "meta_mean_motion_ddot": 0,
        "tle_line1": "1 34136U 93036LH  25359.02762953  .00003135  00000+0  39257-3 0  9996",
        "tle_line2": "2 34136  74.0199  18.3962 0084999 137.9900 249.8313 14.80154125901928"
      },
      "geometry": {
        "type": "Point",
        "coordinates": [
          -6.54024812332832,
          -54.871393850749094
        ]
      }
    },
    {
      "type": "Feature",
      "properties": {
        "norad_id": 34139,
        "name": "COSMOS 2251 DEB",
        "group": "cosmos-2251-debris",
        "lat": 37.111774922021596,
        "lon": 37.25492132304932,
        "alt_km": 720.4170842707881,
        "timestamp": "2025-12-25T11:37:44.833295+00:00",
        "meta_object_name": "COSMOS 2251 DEB",
        "meta_object_id": "1993-036LL",
        "meta_epoch": "2025-12-25T01:47:48.336000",
        "meta_mean_motion": 14.59215769,
        "meta_eccentricity": 0.0042384,
        "meta_inclination": 74.0297,
        "meta_ra_of_asc_node": 230.5495,
        "meta_arg_of_pericenter": 299.6679,
        "meta_mean_anomaly": 210.3062,
        "meta_ephemeris_type": 0,
        "meta_classification_type": "U",
        "meta_norad_cat_id": 34139,
        "meta_element_set_no": 999,
        "meta_rev_at_epoch": 88329,
        "meta_bstar": 0.0013637,
        "meta_mean_motion_dot": 6.489e-05,
        "meta_mean_motion_ddot": 0,
        "tle_line1": "1 34139U 93036LL  25359.07486500  .00006489  00000+0  13637-2 0  9993",
        "tle_line2": "2 34139  74.0297 230.5495 0042384 299.6679 210.3062 14.59215769883291"
      },
      "geometry": {
        "type": "Point",
        "coordinates": [
          37.25492132304932,
          37.111774922021596
        ]
      }
    }
  ]
}